[{"OBJECT_NAME":"SHIYAN-21 (SY-21)","OBJECT_ID":"2022-172A","EPOCH":"2026-03-09T23:40:42.191616","MEAN_MOTION":15.28197132,"ECCENTRICITY":0.00206059,"INCLINATION":35.9768,"RA_OF_ASC_NODE":332.6944,"ARG_OF_PERICENTER":79.3933,"MEAN_ANOMALY":280.9121,"EPHEMERIS_TYPE":0,"CLASSIFICATION_TYPE":"U","NORAD_CAT_ID":54752,"ELEMENT_SET_NO":999,"REV_AT_EPOCH":18050,"BSTAR":0.00041186164,"MEAN_MOTION_DOT":0.00011616,"MEAN_MOTION_DDOT":0},{"OBJECT_NAME":"STARLINK-31499","OBJECT_ID":"2024-046S","EPOCH":"2026-03-09T11:59:40.796736","MEAN_MOTION":15.30186181,"ECCENTRICITY":0.00011893,"INCLINATION":53.1605,"RA_OF_ASC_NODE":155.9918,"ARG_OF_PERICENTER":93.034,"MEAN_ANOMALY":267.0797,"EPHEMERIS_TYPE":0,"CLASSIFICATION_TYPE":"U","NORAD_CAT_ID":59217,"ELEMENT_SET_NO":999,"REV_AT_EPOCH":11301,"BSTAR":1.310289e-6,"MEAN_MOTION_DOT":-3.2e-6,"MEAN_MOTION_DDOT":0}]
